STARLINK-1599
1 26143C 20057AC  21325.13215689  .00721753  00000-0  11718-1 0  3257
2 26143  53.0545 133.1749 0001811  39.7726 234.0473 15.51398218    12
